CCSDS_OMM_VERS,COMMENT,CREATION_DATE,ORIGINATOR,OBJECT_NAME,OBJECT_ID,CENTER_NAME,REF_FRAME,TIME_SYSTEM,MEAN_ELEMENT_THEORY,EPOCH,MEAN_MOTION,ECCENTRICITY,INCLINATION,RA_OF_ASC_NODE,ARG_OF_PERICENTER,MEAN_ANOMALY,EPHEMERIS_TYPE,CLASSIFICATION_TYPE,NORAD_CAT_ID,ELEMENT_SET_NO,REV_AT_EPOCH,BSTAR,MEAN_MOTION_DOT,MEAN_MOTION_DDOT,SEMIMAJOR_AXIS,PERIOD,APOAPSIS,PERIAPSIS,OBJECT_TYPE,RCS_SIZE,COUNTRY_CODE,LAUNCH_DATE,SITE,DECAY_DATE,FILE,GP_ID,TLE_LINE0,TLE_LINE1,TLE_LINE2
"2.0","GENERATED VIA SPACE-TRACK.ORG API","2020-12-08T19:33:24","18 SPCS","BRO-1","2019-054A","EARTH","TEME","UTC","SGP4","2020-12-08T03:28:30.971424","15.08654991","0.00107710","45.0184","89.3140","58.3335","6.0949","0","U","44495","999","7200","0.00006017200000","0.00000710","0.0000000000000","6918.445","95.449","547.762","532.859","PAYLOAD","SMALL","FR","2019-08-19","RLLC","","2899533","167243759","0 BRO-1","1 44495U 19054A   20343.14480291  .00000710  00000-0  60172-4 0  9994","2 44495  45.0184  89.3140 0010771  58.3335   6.0949 15.08654991 72003"
"2.0","GENERATED VIA SPACE-TRACK.ORG API","2020-12-08T14:36:10","18 SPCS","BRO-1","2019-054A","EARTH","TEME","UTC","SGP4","2020-12-08T11:21:53.225280","15.08654763","0.00107580","45.0181","87.5714","60.3310","351.3231","0","U","44495","999","7205","0.00005085400000","0.00000561","0.0000000000000","6918.446","95.449","547.754","532.868","PAYLOAD","SMALL","FR","2019-08-19","RLLC","","2899458","167200590","0 BRO-1","1 44495U 19054A   20343.47353270  .00000561  00000-0  50854-4 0  9996","2 44495  45.0181  87.5714 0010758  60.3310 351.3231 15.08654763 72050"
"2.0","GENERATED VIA SPACE-TRACK.ORG API","2020-12-09T02:27:26","18 SPCS","BRO-1","2019-054A","EARTH","TEME","UTC","SGP4","2020-12-08T16:31:53.092416","15.08654898","0.00107490","45.0179","86.4302","61.5051","80.5555","0","U","44495","999","7208","0.00004866800000","0.00000526","0.0000000000000","6918.446","95.449","547.747","532.874","PAYLOAD","SMALL","FR","2019-08-19","RLLC","","2899603","167265779","0 BRO-1","1 44495U 19054A   20343.68880894  .00000526  00000-0  48668-4 0  9997","2 44495  45.0179  86.4302 0010749  61.5051  80.5555 15.08654898 72085"
"2.0","GENERATED VIA SPACE-TRACK.ORG API","2020-12-09T02:26:10","18 SPCS","BRO-1","2019-054A","EARTH","TEME","UTC","SGP4","2020-12-08T18:12:57.038400","15.08654974","0.00107440","45.0179","86.0580","61.9740","101.6643","0","U","44495","999","7209","0.00004799300000","0.00000516","0.0000000000000","6918.445","95.449","547.744","532.877","PAYLOAD","SMALL","FR","2019-08-19","RLLC","","2899589","167247114","0 BRO-1","1 44495U 19054A   20343.75899350  .00000516  00000-0  47993-4 0  9991","2 44495  45.0179  86.0580 0010744  61.9740 101.6643 15.08654974 72092"
"2.0","GENERATED VIA SPACE-TRACK.ORG API","2020-12-09T15:16:10","18 SPCS","BRO-1","2019-054A","EARTH","TEME","UTC","SGP4","2020-12-09T12:52:56.172000","15.08654780","0.00106510","45.0176","81.9343","67.1917","4.9887","0","U","44495","999","7221","0.00003381900000","0.00000290","0.0000000000000","6918.446","95.449","547.680","532.942","PAYLOAD","SMALL","FR","2019-08-19","RLLC","","2899862","167296628","0 BRO-1","1 44495U 19054A   20344.53676125  .00000290  00000-0  33819-4 0  9992","2 44495  45.0176  81.9343 0010651  67.1917   4.9887 15.08654780 72215"
"2.0","GENERATED VIA SPACE-TRACK.ORG API","2020-12-09T22:46:10","18 SPCS","BRO-1","2019-054A","EARTH","TEME","UTC","SGP4","2020-12-09T16:13:46.539840","15.08655102","0.00106460","45.0180","81.1950","68.1527","42.3051","0","U","44495","999","7223","0.00003528300000","0.00000313","0.0000000000000","6918.445","95.449","547.675","532.945","PAYLOAD","SMALL","FR","2019-08-19","RLLC","","2900156","167346557","0 BRO-1","1 44495U 19054A   20344.67623310  .00000313  00000-0  35283-4 0  9998","2 44495  45.0180  81.1950 0010646  68.1527  42.3051 15.08655102 72238"
"2.0","GENERATED VIA SPACE-TRACK.ORG API","2020-12-10T05:43:41","18 SPCS","BRO-1","2019-054A","EARTH","TEME","UTC","SGP4","2020-12-09T17:55:12.061632","15.08655203","0.00106470","45.0179","80.8212","68.7215","64.6723","0","U","44495","999","7224","0.00003508600000","0.00000310","0.0000000000000","6918.445","95.449","547.676","532.944","PAYLOAD","SMALL","FR","2019-08-19","RLLC","","2900243","167368016","0 BRO-1","1 44495U 19054A   20344.74666738  .00000310  00000-0  35086-4 0  9995","2 44495  45.0179  80.8212 0010647  68.7215  64.6723 15.08655203 72240"
"2.0","GENERATED VIA SPACE-TRACK.ORG API","2020-12-10T06:36:09","18 SPCS","BRO-1","2019-054A","EARTH","TEME","UTC","SGP4","2020-12-10T03:10:05.187072","15.08655568","0.00105820","45.0180","78.7776","71.6335","356.7525","0","U","44495","999","7230","0.00003332600000","0.00000282","0.0000000000000","6918.444","95.449","547.630","532.988","PAYLOAD","SMALL","FR","2019-08-19","RLLC","","2900310","167392546","0 BRO-1","1 44495U 19054A   20345.13200448  .00000282  00000-0  33326-4 0  9994","2 44495  45.0180  78.7776 0010582  71.6335 356.7525 15.08655568 72303"
"2.0","GENERATED VIA SPACE-TRACK.ORG API","2020-12-10T17:12:53","18 SPCS","BRO-1","2019-054A","EARTH","TEME","UTC","SGP4","2020-12-10T03:10:05.187072","15.08655568","0.00105820","45.0180","78.7776","71.6335","356.7525","0","U","44495","999","7230","0.00003332600000","0.00000282","0.0000000000000","6918.444","95.449","547.630","532.988","PAYLOAD","SMALL","FR","2019-08-19","RLLC","","2900598","167418819","0 BRO-1","1 44495U 19054A   20345.13200448  .00000282  00000-0  33326-4 0  9994","2 44495  45.0180  78.7776 0010582  71.6335 356.7525 15.08655568 72303"
"2.0","GENERATED VIA SPACE-TRACK.ORG API","2020-12-10T12:36:10","18 SPCS","BRO-1","2019-054A","EARTH","TEME","UTC","SGP4","2020-12-10T07:54:12.583584","15.08655513","0.00106240","45.0179","77.7313","72.5496","348.5531","0","U","44495","999","7233","0.00003020900000","0.00000232","0.0000000000000","6918.444","95.449","547.659","532.959","PAYLOAD","SMALL","FR","2019-08-19","RLLC","","2900503","167396339","0 BRO-1","1 44495U 19054A   20345.32931231  .00000232  00000-0  30209-4 0  9998","2 44495  45.0179  77.7313 0010624  72.5496 348.5531 15.08655513 72331"
"2.0","GENERATED VIA SPACE-TRACK.ORG API","2020-12-10T17:17:55","18 SPCS","BRO-1","2019-054A","EARTH","TEME","UTC","SGP4","2020-12-10T11:15:49.212576","15.08654911","0.00105630","45.0179","76.9898","73.4046","28.8824","0","U","44495","999","7235","0.00002249300000","0.00000109","0.0000000000000","6918.446","95.449","547.619","533.003","PAYLOAD","SMALL","FR","2019-08-19","RLLC","","2900599","167438923","0 BRO-1","1 44495U 19054A   20345.46931959 +.00000109 +00000-0 +22493-4 0  9999","2 44495 045.0179 076.9898 0010563 073.4046 028.8824 15.08654911072359"
"2.0","GENERATED VIA SPACE-TRACK.ORG API","2020-12-10T21:26:10","18 SPCS","BRO-1","2019-054A","EARTH","TEME","UTC","SGP4","2020-12-10T17:49:24.457152","15.08655545","0.00105780","45.0187","75.5419","74.9565","73.3343","0","U","44495","999","7239","0.00002665200000","0.00000176","0.0000000000000","6918.444","95.449","547.627","532.990","PAYLOAD","SMALL","FR","2019-08-19","RLLC","","2900694","167443211","0 BRO-1","1 44495U 19054A   20345.74264418  .00000176  00000-0  26652-4 0  9994","2 44495  45.0187  75.5419 0010578  74.9565  73.3343 15.08655545 72399"
"2.0","GENERATED VIA SPACE-TRACK.ORG API","2020-12-11T03:25:56","18 SPCS","BRO-1","2019-054A","EARTH","TEME","UTC","SGP4","2020-12-10T17:49:24.457152","15.08655545","0.00105780","45.0187","75.5419","74.9565","73.3343","0","U","44495","999","7239","0.00002665200000","0.00000176","0.0000000000000","6918.444","95.449","547.627","532.990","PAYLOAD","SMALL","FR","2019-08-19","RLLC","","2900834","167465556","0 BRO-1","1 44495U 19054A   20345.74264418  .00000176  00000-0  26652-4 0  9994","2 44495  45.0187  75.5419 0010578  74.9565  73.3343 15.08655545 72399"
"2.0","GENERATED VIA SPACE-TRACK.ORG API","2020-12-11T06:36:10","18 SPCS","BRO-1","2019-054A","EARTH","TEME","UTC","SGP4","2020-12-11T03:00:53.809920","15.08655912","0.00105640","45.0192","73.5120","77.1416","353.3173","0","U","44495","999","7245","0.00002613100000","0.00000167","0.0000000000000","6918.443","95.449","547.616","532.999","PAYLOAD","SMALL","FR","2019-08-19","RLLC","","2900918","167490983","0 BRO-1","1 44495U 19054A   20346.12562280  .00000167  00000-0  26131-4 0  9997","2 44495  45.0192  73.5120 0010564  77.1416 353.3173 15.08655912 72454"
"2.0","GENERATED VIA SPACE-TRACK.ORG API","2020-12-11T14:46:10","18 SPCS","BRO-1","2019-054A","EARTH","TEME","UTC","SGP4","2020-12-11T12:18:12.038976","15.08656261","0.00105140","45.0191","71.4610","79.4502","295.1304","0","U","44495","999","7251","0.00002596800000","0.00000165","0.0000000000000","6918.442","95.449","547.581","533.033","PAYLOAD","SMALL","FR","2019-08-19","RLLC","","2901186","167496916","0 BRO-1","1 44495U 19054A   20346.51263934  .00000165  00000-0  25968-4 0  9999","2 44495  45.0191  71.4610 0010514  79.4502 295.1304 15.08656261 72514"
"2.0","GENERATED VIA SPACE-TRACK.ORG API","2020-12-11T22:36:09","18 SPCS","BRO-1","2019-054A","EARTH","TEME","UTC","SGP4","2020-12-11T15:55:02.595936","15.08656746","0.00105440","45.0199","70.6628","79.9751","33.3039","0","U","44495","999","7253","0.00002912900000","0.00000215","0.0000000000000","6918.440","95.449","547.600","533.010","PAYLOAD","SMALL","FR","2019-08-19","RLLC","","2901401","167544594","0 BRO-1","1 44495U 19054A   20346.66322449  .00000215  00000-0  29129-4 0  9991","2 44495  45.0199  70.6628 0010544  79.9751  33.3039 15.08656746 72533"
"2.0","GENERATED VIA SPACE-TRACK.ORG API","2020-12-12T20:38:44","18 SPCS","BRO-1","2019-054A","EARTH","TEME","UTC","SGP4","2020-12-12T04:31:48.918432","15.08658139","0.00105420","45.0203","67.8769","83.5361","6.9704","0","U","44495","999","7261","0.00003894400000","0.00000372","0.0000000000000","6918.436","95.449","547.594","533.007","PAYLOAD","SMALL","FR","2019-08-19","RLLC","","2901853","167616951","0 BRO-1","1 44495U 19054A   20347.18876063  .00000372  00000-0  38944-4 0  9994","2 44495  45.0203  67.8769 0010542  83.5361   6.9704 15.08658139 72611"
